start=new Date('2021-12-14T00:00:00.000Z').valueOf();
sats=[{"MEAN_ANOMALY":"41.4435","MEAN_ELEMENT_THEORY":"SGP4","OBJECT_NAME":"STARLINK-2316","MEAN_MOTION_DDOT":"0.0000000000000","RA_OF_ASC_NODE":"330.5669","ARG_OF_PERICENTER":"102.9333","EPHEMERIS_TYPE":"0","BSTAR":"0.00270600000000","RCS_SIZE":"LARGE","REV_AT_EPOCH":"4243","MEAN_MOTION":"15.85167600","TLE_LINE2":"2 47984  53.0547 330.5669 0001080 102.9333  41.4435 15.85167600 42433","OBJECT_TYPE":"PAYLOAD","SEMIMAJOR_AXIS":"6693.990","LAUNCH_DATE":"2021-03-24","REF_FRAME":"TEME","FILE":"3239311","NORAD_CAT_ID":"47984","CENTER_NAME":"EARTH","DECAY_DATE":null,"PERIAPSIS":"315.132","APOAPSIS":"316.578","CLASSIFICATION_TYPE":"U","INCLINATION":"53.0547","SITE":"AFETR","EPOCH":"2021-12-13T22:00:00.999936","MEAN_MOTION_DOT":"0.00708940","PERIOD":"90.842","ECCENTRICITY":"0.00010800","ELEMENT_SET_NO":"999","TLE_LINE1":"1 47984U 21024H   21347.91667824  .00708940  00000-0  27060-2 0  9996","COUNTRY_CODE":"US","TIME_SYSTEM":"UTC","OBJECT_ID":"2021-024H","GP_ID":"191632352"},{"MEAN_MOTION_DOT":"0.00006553","EPOCH":"2021-12-13T22:00:00.999936","PERIOD":"95.696","ECCENTRICITY":"0.00015660","ELEMENT_SET_NO":"999","COUNTRY_CODE":"US","TLE_LINE1":"1 47985U 21024J   21347.91667824  .00006553  00000-0  47876-3 0  9996","OBJECT_ID":"2021-024J","GP_ID":"191659811","TIME_SYSTEM":"UTC","CLASSIFICATION_TYPE":"U","PERIAPSIS":"551.149","APOAPSIS":"553.319","INCLINATION":"53.0558","SITE":"AFETR","SEMIMAJOR_AXIS":"6930.369","REF_FRAME":"TEME","LAUNCH_DATE":"2021-03-24","FILE":"3239585","NORAD_CAT_ID":"47985","CENTER_NAME":"EARTH","DECAY_DATE":null,"MEAN_ANOMALY":"205.2610","MEAN_ELEMENT_THEORY":"SGP4","MEAN_MOTION_DDOT":"0.0000000000000","OBJECT_NAME":"STARLINK-2308","EPHEMERIS_TYPE":"0","ARG_OF_PERICENTER":"67.7985","RA_OF_ASC_NODE":"14.7504","BSTAR":"0.00047876000000","REV_AT_EPOCH":"359","RCS_SIZE":"LARGE","OBJECT_TYPE":"PAYLOAD","TLE_LINE2":"2 47985  53.0558  14.7504 0001566  67.7985 205.2610 15.04763377  3598","MEAN_MOTION":"15.04763377"},{"SITE":"AFETR","INCLINATION":"53.0306","PERIAPSIS":"339.689","APOAPSIS":"354.893","CLASSIFICATION_TYPE":"U","ECCENTRICITY":"0.00113030","PERIOD":"91.483","EPOCH":"2021-12-13T22:00:00.999936","MEAN_MOTION_DOT":"0.00071464","TIME_SYSTEM":"UTC","OBJECT_ID":"2021-024K","GP_ID":"191629593","TLE_LINE1":"1 47986U 21024K   21347.91667824  .00071464  00000-0  48889-3 0  9995","COUNTRY_CODE":"US","ELEMENT_SET_NO":"999","RA_OF_ASC_NODE":"325.4022","ARG_OF_PERICENTER":"77.1467","EPHEMERIS_TYPE":"0","OBJECT_NAME":"STARLINK-2313","MEAN_MOTION_DDOT":"0.0000000000000","MEAN_ELEMENT_THEORY":"SGP4","MEAN_ANOMALY":"210.7865","MEAN_MOTION":"15.74066375","TLE_LINE2":"2 47986  53.0306 325.4022 0011303  77.1467 210.7865 15.74066375 42774","OBJECT_TYPE":"PAYLOAD","RCS_SIZE":"LARGE","REV_AT_EPOCH":"4277","BSTAR":"0.00048889000000","FILE":"3239223","LAUNCH_DATE":"2021-03-24","REF_FRAME":"TEME","SEMIMAJOR_AXIS":"6725.426","DECAY_DATE":null,"CENTER_NAME":"EARTH","NORAD_CAT_ID":"47986"},{"COUNTRY_CODE":"US","TLE_LINE1":"1 47987U 21024L   21348.08334491  .00817715  30148-3  20383-2 0  9990","GP_ID":"191638042","OBJECT_ID":"2021-024L","TIME_SYSTEM":"UTC","ELEMENT_SET_NO":"999","PERIOD":"90.267","ECCENTRICITY":"0.00025280","MEAN_MOTION_DOT":"0.00817715","EPOCH":"2021-12-14T02:00:01.000224","SITE":"AFETR","CLASSIFICATION_TYPE":"U","APOAPSIS":"289.259","PERIAPSIS":"285.889","INCLINATION":"53.0545","DECAY_DATE":null,"NORAD_CAT_ID":"47987","CENTER_NAME":"EARTH","FILE":"3239583","SEMIMAJOR_AXIS":"6665.709","REF_FRAME":"TEME","LAUNCH_DATE":"2021-03-24","REV_AT_EPOCH":"4249","RCS_SIZE":"LARGE","TLE_LINE2":"2 47987  53.0545 326.5316 0002528 123.2490  31.0893 15.95266432 42499","OBJECT_TYPE":"PAYLOAD","MEAN_MOTION":"15.95266432","BSTAR":"0.00203830000000","EPHEMERIS_TYPE":"0","RA_OF_ASC_NODE":"326.5316","ARG_OF_PERICENTER":"123.2490","MEAN_ANOMALY":"31.0893","MEAN_ELEMENT_THEORY":"SGP4","OBJECT_NAME":"STARLINK-2311","MEAN_MOTION_DDOT":"0.0003014800000"},{"SITE":"AFETR","INCLINATION":"53.0563","CLASSIFICATION_TYPE":"U","PERIAPSIS":"523.134","APOAPSIS":"525.314","ECCENTRICITY":"0.00015790","PERIOD":"95.117","MEAN_MOTION_DOT":"0.00046903","EPOCH":"2021-12-13T22:09:10.978272","OBJECT_ID":"2021-024M","GP_ID":"191659061","TIME_SYSTEM":"UTC","COUNTRY_CODE":"US","TLE_LINE1":"1 47988U 21024M   21347.92304373  .00046903  00000-0  25582-2 0  9999","ELEMENT_SET_NO":"999","EPHEMERIS_TYPE":"0","ARG_OF_PERICENTER":"70.7986","RA_OF_ASC_NODE":"54.7387","OBJECT_NAME":"STARLINK-2306","MEAN_MOTION_DDOT":"0.0000000000000","MEAN_ANOMALY":"289.3177","MEAN_ELEMENT_THEORY":"SGP4","OBJECT_TYPE":"PAYLOAD","TLE_LINE2":"2 47988  53.0563  54.7387 0001579  70.7986 289.3177 15.13932229 41721","MEAN_MOTION":"15.13932229","REV_AT_EPOCH":"4172","RCS_SIZE":"MEDIUM","BSTAR":"0.00255820000000","FILE":"3239585","REF_FRAME":"TEME","LAUNCH_DATE":"2021-03-24","SEMIMAJOR_AXIS":"6902.359","DECAY_DATE":null,"CENTER_NAME":"EARTH","NORAD_CAT_ID":"47988"},{"INCLINATION":"53.0546","CLASSIFICATION_TYPE":"U","APOAPSIS":"548.753","PERIAPSIS":"545.881","SITE":"AFETR","MEAN_MOTION_DOT":"0.00044496","EPOCH":"2021-12-13T22:00:00.999936","ECCENTRICITY":"0.00020730","PERIOD":"95.594","ELEMENT_SET_NO":"999","GP_ID":"191659312","OBJECT_ID":"2021-024N","TIME_SYSTEM":"UTC","COUNTRY_CODE":"US","TLE_LINE1":"1 47989U 21024N   21347.91667824  .00044496  00000-0  29900-2 0  9995","OBJECT_NAME":"STARLINK-2305","MEAN_MOTION_DDOT":"0.0000000000000","MEAN_ANOMALY":"277.0912","MEAN_ELEMENT_THEORY":"SGP4","EPHEMERIS_TYPE":"0","ARG_OF_PERICENTER":"45.8164","RA_OF_ASC_NODE":"350.3418","BSTAR":"0.00299000000000","OBJECT_TYPE":"PAYLOAD","TLE_LINE2":"2 47989  53.0546 350.3418 0002073  45.8164 277.0912 15.06366283  3591","MEAN_MOTION":"15.06366283","REV_AT_EPOCH":"359","RCS_SIZE":"MEDIUM","REF_FRAME":"TEME","LAUNCH_DATE":"2021-03-24","SEMIMAJOR_AXIS":"6925.452","FILE":"3239585","CENTER_NAME":"EARTH","NORAD_CAT_ID":"47989","DECAY_DATE":null},{"SITE":"AFETR","CLASSIFICATION_TYPE":"U","PERIAPSIS":"546.127","APOAPSIS":"548.291","INCLINATION":"53.0509","COUNTRY_CODE":"US","TLE_LINE1":"1 47990U 21024P   21347.91667824  .00002486  00000-0  18573-3 0  9995","GP_ID":"191660562","OBJECT_ID":"2021-024P","TIME_SYSTEM":"UTC","ELEMENT_SET_NO":"999","PERIOD":"95.592","ECCENTRICITY":"0.00015620","MEAN_MOTION_DOT":"0.00002486","EPOCH":"2021-12-13T22:00:00.999936","RCS_SIZE":"LARGE","REV_AT_EPOCH":"360","OBJECT_TYPE":"PAYLOAD","TLE_LINE2":"2 47990  53.0509 350.3784 0001562  69.5295 148.2510 15.06401538  3606","MEAN_MOTION":"15.06401538","BSTAR":"0.00018573000000","EPHEMERIS_TYPE":"0","ARG_OF_PERICENTER":"69.5295","RA_OF_ASC_NODE":"350.3784","MEAN_ANOMALY":"148.2510","MEAN_ELEMENT_THEORY":"SGP4","OBJECT_NAME":"STARLINK-2307","MEAN_MOTION_DDOT":"0.0000000000000","DECAY_DATE":null,"NORAD_CAT_ID":"47990","CENTER_NAME":"EARTH","FILE":"3239585","SEMIMAJOR_AXIS":"6925.344","REF_FRAME":"TEME","LAUNCH_DATE":"2021-03-24"},{"PERIOD":"95.696","ECCENTRICITY":"0.00016130","EPOCH":"2021-12-13T22:00:00.999936","MEAN_MOTION_DOT":"0.00010623","TLE_LINE1":"1 47991U 21024Q   21347.91667824  .00010623  00000-0  76350-3 0  9995","COUNTRY_CODE":"US","TIME_SYSTEM":"UTC","GP_ID":"191629995","OBJECT_ID":"2021-024Q","ELEMENT_SET_NO":"999","SITE":"AFETR","APOAPSIS":"553.346","PERIAPSIS":"551.111","CLASSIFICATION_TYPE":"U","INCLINATION":"53.0557","FILE":"3239223","SEMIMAJOR_AXIS":"6930.364","LAUNCH_DATE":"2021-03-24","REF_FRAME":"TEME","DECAY_DATE":null,"NORAD_CAT_ID":"47991","CENTER_NAME":"EARTH","ARG_OF_PERICENTER":"58.2116","RA_OF_ASC_NODE":"4.5382","EPHEMERIS_TYPE":"0","MEAN_ELEMENT_THEORY":"SGP4","MEAN_ANOMALY":"161.4799","OBJECT_NAME":"STARLINK-2279","MEAN_MOTION_DDOT":"0.0000000000000","RCS_SIZE":"LARGE","REV_AT_EPOCH":"4195","MEAN_MOTION":"15.04765200","TLE_LINE2":"2 47991  53.0557   4.5382 0001613  58.2116 161.4799 15.04765200 41959","OBJECT_TYPE":"PAYLOAD","BSTAR":"0.00076350000000"},{"ELEMENT_SET_NO":"999","GP_ID":"191659561","OBJECT_ID":"2021-024R","TIME_SYSTEM":"UTC","COUNTRY_CODE":"US","TLE_LINE1":"1 47992U 21024R   21347.91667824  .00038868  00000-0  26151-2 0  9990","MEAN_MOTION_DOT":"0.00038868","EPOCH":"2021-12-13T22:00:00.999936","ECCENTRICITY":"0.00018910","PERIOD":"95.593","INCLINATION":"53.0558","CLASSIFICATION_TYPE":"U","PERIAPSIS":"545.957","APOAPSIS":"548.576","SITE":"AFETR","CENTER_NAME":"EARTH","NORAD_CAT_ID":"47992","DECAY_DATE":null,"REF_FRAME":"TEME","LAUNCH_DATE":"2021-03-24","SEMIMAJOR_AXIS":"6925.402","FILE":"3239585","BSTAR":"0.00261510000000","TLE_LINE2":"2 47992  53.0558   0.3450 0001891  50.8423  37.0794 15.06382726  3601","OBJECT_TYPE":"PAYLOAD","MEAN_MOTION":"15.06382726","RCS_SIZE":"LARGE","REV_AT_EPOCH":"360","OBJECT_NAME":"STARLINK-2229","MEAN_MOTION_DDOT":"0.0000000000000","MEAN_ELEMENT_THEORY":"SGP4","MEAN_ANOMALY":"37.0794","EPHEMERIS_TYPE":"0","RA_OF_ASC_NODE":"0.3450","ARG_OF_PERICENTER":"50.8423"},{"FILE":"3239585","REF_FRAME":"TEME","LAUNCH_DATE":"2021-03-24","SEMIMAJOR_AXIS":"6925.348","DECAY_DATE":null,"CENTER_NAME":"EARTH","NORAD_CAT_ID":"47993","EPHEMERIS_TYPE":"0","RA_OF_ASC_NODE":"40.6551","ARG_OF_PERICENTER":"79.8277","MEAN_MOTION_DDOT":"0.0000000000000","OBJECT_NAME":"STARLINK-2273","MEAN_ELEMENT_THEORY":"SGP4","MEAN_ANOMALY":"280.2864","TLE_LINE2":"2 47993  53.0574  40.6551 0001342  79.8277 280.2864 15.06400309 41978","OBJECT_TYPE":"PAYLOAD","MEAN_MOTION":"15.06400309","RCS_SIZE":"LARGE","REV_AT_EPOCH":"4197","BSTAR":"-0.00002715300000","ECCENTRICITY":"0.00013420","PERIOD":"95.592","MEAN_MOTION_DOT":"-0.00000686","EPOCH":"2021-12-13T20:23:46.157856","GP_ID":"191659812","OBJECT_ID":"2021-024S","TIME_SYSTEM":"UTC","COUNTRY_CODE":"US","TLE_LINE1":"1 47993U 21024S   21347.84983979 -.00000686  00000-0 -27153-4 0  9999","ELEMENT_SET_NO":"999","SITE":"AFETR","INCLINATION":"53.0574","CLASSIFICATION_TYPE":"U","PERIAPSIS":"546.283","APOAPSIS":"548.142"}];
